ONEWEB-0033             
1 45142U 20008M   24327.97511669  .00000466  00000+0  12979-2 0  9993
2 45142  87.8882 150.0512 0001301  82.7141 277.4134 13.10369084233406
ONEWEB-0035             
1 45143U 20008N   24328.00663127 -.00000648  00000+0 -18914-2 0  9995
2 45143  87.8888 150.0347 0001402  84.2730 275.8557 13.10373711233135
ONEWEB-0036             
1 45144U 20008P   24327.99667308 -.00000593  00000+0 -17340-2 0  9999
2 45144  87.8881 149.9877 0001694  96.3230 263.8091 13.10369855233567
ONEWEB-0038             
1 45145U 20008Q   24327.99926077  .00000656  00000+0  18139-2 0  9996
2 45145  87.8881 134.8612 0002119  78.0935 282.0430 13.11415783235464
ONEWEB-0039             
1 45146U 20008R   24327.97843155  .00000262  00000+0  71427-3 0  9993
2 45146  87.8881 150.0105 0002150  87.4658 272.6716 13.10367781233354
ONEWEB-0040             
1 45147U 20008S   24327.97179770  .00000640  00000+0  17957-2 0  9996
2 45147  87.8893 150.0241 0001533  86.3936 273.7367 13.10370123233055
ONEWEB-0043             
1 45149U 20008U   24327.97346110  .00000506  00000+0  14144-2 0  9998
2 45149  87.8887 150.0219 0001963  94.9518 265.1833 13.10371562233379
ONEWEB-0044             
1 45150U 20008V   24328.45979674 -.00000604  00000+0 -17660-2 0  9998
2 45150  87.8886 149.9193 0001794  92.6884 267.4448 13.10371128233736
